{"type": "FeatureCollection", "features": [ {"type": "Feature", "properties": {"norad_id": 32316, "name": "FENGYUN 1C DEB", "group": "fengyun-1c-debris", "lat": 78.47278208499905, "lon": -104.55225012924058, "alt_km": 727.3267483074778, "timestamp": "2025-12-18T17:50:15.242724+00:00", "meta": {"OBJECT_NAME": "FENGYUN 1C DEB", "OBJECT_ID": "1999-025CXH", "EPOCH": "2025-12-17T08:23:08.162592", "MEAN_MOTION": 14.51927636, "ECCENTRICITY": 0.00264243, "INCLINATION": 99.5285, "RA_OF_ASC_NODE": 18.425, "ARG_OF_PERICENTER": 315.3878, "MEAN_ANOMALY": 59.544, "EPHEMERIS_TYPE": 0, "CLASSIFICATION_TYPE": "U", "NORAD_CAT_ID": 32316, "ELEMENT_SET_NO": 999, "REV_AT_EPOCH": 95844, "BSTAR": 0.0013615239, "MEAN_MOTION_DOT": 5.463e-05, "MEAN_MOTION_DDOT": 0}, "tle": {"line1": "1 32316U 99025CXH 25351.34940003  .00005463  00000+0  13615-2 0  9994", "line2": "2 32316  99.5285  18.4250 0026424 315.3878  59.5440 14.51927636958449"}}, "geometry": {"type": "Point", "coordinates": [-104.55225012924058, 78.47278208499905]}}, {"type": "Feature", "properties": {"norad_id": 32320, "name": "FENGYUN 1C DEB", "group": "fengyun-1c-debris", "lat": 27.90763667312034, "lon": -154.5263290175832, "alt_km": 729.7195045172903, "timestamp": "2025-12-18T17:50:15.242734+00:00", "meta": {"OBJECT_NAME": "FENGYUN 1C DEB", "OBJECT_ID": "1999-025CXM", "EPOCH": "2025-12-16T08:51:30.683232", "MEAN_MOTION": 14.3615851, "ECCENTRICITY": 0.00562422, "INCLINATION": 100.3742, "RA_OF_ASC_NODE": 208.1887, "ARG_OF_PERICENTER": 37.7415, "MEAN_ANOMALY": 322.7689, "EPHEMERIS_TYPE": 0, "CLASSIFICATION_TYPE": "U", "NORAD_CAT_ID": 32320, "ELEMENT_SET_NO": 999, "REV_AT_EPOCH": 62225, "BSTAR": 0.0006139878, "MEAN_MOTION_DOT": 1.763e-05, "MEAN_MOTION_DDOT": 0}, "tle": {"line1": "1 32320U 99025CXM 25350.36910513  .00001763  00000+0  61399-3 0  9995", "line2": "2 32320 100.3742 208.1887 0056242  37.7415 322.7689 14.36158510622257"}}, "geometry": {"type": "Point", "coordinates": [-154.5263290175832, 27.90763667312034]}}, {"type": "Feature", "properties": {"norad_id": 32322, "name": "FENGYUN 1C DEB", "group": "fengyun-1c-debris", "lat": 71.70449994982707, "lon": -152.66755130719173, "alt_km": 812.770853027554, "timestamp": "2025-12-18T17:50:15.242744+00:00", "meta": {"OBJECT_NAME": "FENGYUN 1C DEB", "OBJECT_ID": "1999-025CXP", "EPOCH": "2025-12-14T10:53:55.069440", "MEAN_MOTION": 13.34140206, "ECCENTRICITY": 0.04192174, "INCLINATION": 98.3703, "RA_OF_ASC_NODE": 230.2532, "ARG_OF_PERICENTER": 93.3217, "MEAN_ANOMALY": 271.5949, "EPHEMERIS_TYPE": 0, "CLASSIFICATION_TYPE": "U", "NORAD_CAT_ID": 32322, "ELEMENT_SET_NO": 999, "REV_AT_EPOCH": 60402, "BSTAR": 0.0014557048, "MEAN_MOTION_DOT": 1.161e-05, "MEAN_MOTION_DDOT": 0}, "tle": {"line1": "1 32322U 99025CXP 25348.45410960  .00001161  00000+0  14557-2 0  9990", "line2": "2 32322  98.3703 230.2532 0419217  93.3217 271.5949 13.34140206604023"}}, "geometry": {"type": "Point", "coordinates": [-152.66755130719173, 71.70449994982707]}}, {"type": "Feature", "properties": {"norad_id": 32323, "name": "FENGYUN 1C DEB", "group": "fengyun-1c-debris", "lat": -1.7955259189912107, "lon": -44.74124645303572, "alt_km": 797.6300127705326, "timestamp": "2025-12-18T17:50:15.242755+00:00", "meta": {"OBJECT_NAME": "FENGYUN 1C DEB", "OBJECT_ID": "1999-025CXQ", "EPOCH": "2025-12-11T19:53:55.961952", "MEAN_MOTION": 13.96527739, "ECCENTRICITY": 0.0155374, "INCLINATION": 98.5708, "RA_OF_ASC_NODE": 129.0851, "ARG_OF_PERICENTER": 212.3019, "MEAN_ANOMALY": 146.8558, "EPHEMERIS_TYPE": 0, "CLASSIFICATION_TYPE": "U", "NORAD_CAT_ID": 32323, "ELEMENT_SET_NO": 999, "REV_AT_EPOCH": 60257, "BSTAR": 0.0054384, "MEAN_MOTION_DOT": 8.293e-05, "MEAN_MOTION_DDOT": 0}, "tle": {"line1": "1 32323U 99025CXQ 25345.82911993  .00008293  00000+0  54384-2 0  9996", "line2": "2 32323  98.5708 129.0851 0155374 212.3019 146.8558 13.96527739602570"}}, "geometry": {"type": "Point", "coordinates": [-44.74124645303572, -1.7955259189912107]}}, {"type": "Feature", "properties": {"norad_id": 32324, "name": "FENGYUN 1C DEB", "group": "fengyun-1c-debris", "lat": -79.95044288285327, "lon": 166.33220963351027, "alt_km": 872.1272447611482, "timestamp": "2025-12-18T17:50:15.242765+00:00", "meta": {"OBJECT_NAME": "FENGYUN 1C DEB", "OBJECT_ID": "1999-025CXR", "EPOCH": "2025-12-13T12:08:45.341376", "MEAN_MOTION": 14.09148934, "ECCENTRICITY": 0.00499751, "INCLINATION": 99.5336, "RA_OF_ASC_NODE": 89.3046, "ARG_OF_PERICENTER": 22.0109, "MEAN_ANOMALY": 338.319, "EPHEMERIS_TYPE": 0, "CLASSIFICATION_TYPE": "U", "NORAD_CAT_ID": 32324, "ELEMENT_SET_NO": 999, "REV_AT_EPOCH": 64009, "BSTAR": 0.00075570965, "MEAN_MOTION_DOT": 1.278e-05, "MEAN_MOTION_DDOT": 0}, "tle": {"line1": "1 32324U 99025CXR 25347.50608034  .00001278  00000+0  75571-3 0  9991", "line2": "2 32324  99.5336  89.3046 0049975  22.0109 338.3190 14.09148934640098"}}, "geometry": {"type": "Point", "coordinates": [166.33220963351027, -79.95044288285327]}}, {"type": "Feature", "properties": {"norad_id": 32326, "name": "FENGYUN 1C DEB", "group": "fengyun-1c-debris", "lat": 16.557905946597664, "lon": -81.1183243960201, "alt_km": 1073.3474737183788, "timestamp": "2025-12-18T17:50:15.242775+00:00", "meta": {"OBJECT_NAME": "FENGYUN 1C DEB", "OBJECT_ID": "1999-025CXT", "EPOCH": "2025-12-13T00:57:43.680960", "MEAN_MOTION": 13.69281784, "ECCENTRICITY": 0.03865638, "INCLINATION": 98.4907, "RA_OF_ASC_NODE": 276.3849, "ARG_OF_PERICENTER": 138.5694, "MEAN_ANOMALY": 224.5462, "EPHEMERIS_TYPE": 0, "CLASSIFICATION_TYPE": "U", "NORAD_CAT_ID": 32326, "ELEMENT_SET_NO": 999, "REV_AT_EPOCH": 63186, "BSTAR": 0.0005592068, "MEAN_MOTION_DOT": 7.87e-06, "MEAN_MOTION_DDOT": 0}, "tle": {"line1": "1 32326U 99025CXT 25347.04008890  .00000787  00000+0  55921-3 0  9997", "line2": "2 32326  98.4907 276.3849 0386563 138.5694 224.5462 13.69281784631869"}}, "geometry": {"type": "Point", "coordinates": [-81.1183243960201, 16.557905946597664]}}, {"type": "Feature", "properties": {"norad_id": 32332, "name": "FENGYUN 1C DEB", "group": "fengyun-1c-debris", "lat": -1.7990643253429879, "lon": 47.05108740083804, "alt_km": 804.5920267300216, "timestamp": "2025-12-18T17:50:15.242785+00:00", "meta": {"OBJECT_NAME": "FENGYUN 1C DEB", "OBJECT_ID": "1999-025CXZ", "EPOCH": "2025-12-15T21:05:55.809024", "MEAN_MOTION": 13.97153731, "ECCENTRICITY": 0.02851681, "INCLINATION": 99.133, "RA_OF_ASC_NODE": 43.9123, "ARG_OF_PERICENTER": 304.1737, "MEAN_ANOMALY": 53.2688, "EPHEMERIS_TYPE": 0, "CLASSIFICATION_TYPE": "U", "NORAD_CAT_ID": 32332, "ELEMENT_SET_NO": 999, "REV_AT_EPOCH": 93080, "BSTAR": 0.0011409516, "MEAN_MOTION_DOT": 2.204e-05, "MEAN_MOTION_DDOT": 0}, "tle": {"line1": "1 32332U 99025CXZ 25349.87911816  .00002204  00000+0  11410-2 0  9998", "line2": "2 32332  99.1330  43.9123 0285168 304.1737  53.2688 13.97153731930809"}}, "geometry": {"type": "Point", "coordinates": [47.05108740083804, -1.7990643253429879]}}, {"type": "Feature", "properties": {"norad_id": 32334, "name": "FENGYUN 1C DEB", "group": "fengyun-1c-debris", "lat": -72.20486201851281, "lon": 77.75300694723846, "alt_km": 850.085356532094, "timestamp": "2025-12-18T17:50:15.242795+00:00", "meta": {"OBJECT_NAME": "FENGYUN 1C DEB", "OBJECT_ID": "1999-025CYB", "EPOCH": "2025-12-18T02:46:20.820000", "MEAN_MOTION": 14.01647125, "ECCENTRICITY": 0.00666534, "INCLINATION": 99.2513, "RA_OF_ASC_NODE": 46.6001, "ARG_OF_PERICENTER": 266.0253, "MEAN_ANOMALY": 93.329, "EPHEMERIS_TYPE": 0, "CLASSIFICATION_TYPE": "U", "NORAD_CAT_ID": 32334, "ELEMENT_SET_NO": 999, "REV_AT_EPOCH": 94015, "BSTAR": 0.00022705254, "MEAN_MOTION_DOT": 3.04e-06, "MEAN_MOTION_DDOT": 0}, "tle": {"line1": "1 32334U 99025CYB 25352.11551875  .00000304  00000+0  22705-3 0  9995", "line2": "2 32334  99.2513  46.6001 0066653 266.0253  93.3290 14.01647125940159"}}, "geometry": {"type": "Point", "coordinates": [77.75300694723846, -72.20486201851281]}}, {"type": "Feature", "properties": {"norad_id": 32340, "name": "FENGYUN 1C DEB", "group": "fengyun-1c-debris", "lat": -26.658294774412216, "lon": 3.7466371390995525, "alt_km": 639.054466890816, "timestamp": "2025-12-18T17:50:15.242805+00:00", "meta": {"OBJECT_NAME": "FENGYUN 1C DEB", "OBJECT_ID": "1999-025CYH", "EPOCH": "2025-12-15T23:11:47.571648", "MEAN_MOTION": 14.7470357, "ECCENTRICITY": 0.00336732, "INCLINATION": 98.9811, "RA_OF_ASC_NODE": 356.1161, "ARG_OF_PERICENTER": 283.6183, "MEAN_ANOMALY": 76.1273, "EPHEMERIS_TYPE": 0, "CLASSIFICATION_TYPE": "U", "NORAD_CAT_ID": 32340, "ELEMENT_SET_NO": 999, "REV_AT_EPOCH": 97244, "BSTAR": 0.0017421524, "MEAN_MOTION_DOT": 0.000117, "MEAN_MOTION_DDOT": 0}, "tle": {"line1": "1 32340U 99025CYH 25349.96652282  .00011700  00000+0  17422-2 0  9996", "line2": "2 32340  98.9811 356.1161 0033673 283.6183  76.1273 14.74703570972446"}}, "geometry": {"type": "Point", "coordinates": [3.7466371390995525, -26.658294774412216]}}, {"type": "Feature", "properties": {"norad_id": 32342, "name": "FENGYUN 1C DEB", "group": "fengyun-1c-debris", "lat": 5.116241380199923, "lon": -178.05301599851896, "alt_km": 854.841562057989, "timestamp": "2025-12-18T17:50:15.242815+00:00", "meta": {"OBJECT_NAME": "FENGYUN 1C DEB", "OBJECT_ID": "1999-025CYK", "EPOCH": "2025-12-18T00:17:00.491136", "MEAN_MOTION": 14.13400907, "ECCENTRICITY": 0.00072208, "INCLINATION": 98.6699, "RA_OF_ASC_NODE": 0.4555, "ARG_OF_PERICENTER": 335.7596, "MEAN_ANOMALY": 79.4183, "EPHEMERIS_TYPE": 0, "CLASSIFICATION_TYPE": "U", "NORAD_CAT_ID": 32342, "ELEMENT_SET_NO": 999, "REV_AT_EPOCH": 93792, "BSTAR": 9.4898904e-05, "MEAN_MOTION_DOT": 1.36e-06, "MEAN_MOTION_DDOT": 0}, "tle": {"line1": "1 32342U 99025CYK 25352.01181124  .00000136  00000+0  94899-4 0  9996", "line2": "2 32342  98.6699   0.4555 0007220 335.7596  79.4183 14.13400907937922"}}, "geometry": {"type": "Point", "coordinates": [-178.05301599851896, 5.116241380199923]}}]}